OBJECT_NAME,OBJECT_ID,EPOCH,MEAN_MOTION,ECCENTRICITY,INCLINATION,RA_OF_ASC_NODE,ARG_OF_PERICENTER,MEAN_ANOMALY,EPHEMERIS_TYPE,CLASSIFICATION_TYPE,NORAD_CAT_ID,ELEMENT_SET_NO,REV_AT_EPOCH,BSTAR,MEAN_MOTION_DOT,MEAN_MOTION_DDOT
IRIDIUM 154,2018-061F,2026-06-30T13:22:38.440704,14.34218010,.00022319,86.3950,51.2157,89.2398,270.9054,0,U,43574,999,41532,.16418815E-4,.66E-6,0
IRIDIUM 163,2018-061G,2026-06-30T14:35:42.479520,14.34217865,.00021886,86.3947,51.1093,84.0886,276.0559,0,U,43575,999,41530,.13243804E-4,.57E-6,0
IRIDIUM 156,2018-061H,2026-06-30T15:39:38.489184,14.34220340,.00020123,86.3947,51.0980,86.8781,273.2645,0,U,43576,999,41530,.74575337E-4,.229E-5,0
IRIDIUM 164,2018-061J,2026-06-30T16:52:42.487392,14.34217464,.00021432,86.3948,51.1171,89.8159,270.3283,0,U,43577,999,41535,-.9136068E-5,-.6E-7,0
IRIDIUM 159,2018-061K,2026-06-30T14:26:34.497024,14.34217543,.0002101,86.3945,51.0960,84.0192,276.1243,0,U,43578,999,41530,-.1159049E-5,.17E-6,0
IRIDIUM 180,2019-002A,2026-06-30T11:04:54.934752,14.34217775,.00022308,86.3976,348.0473,89.4012,270.7439,0,U,43922,999,39089,.4298339E-5,.32E-6,0
IRIDIUM 176,2019-002B,2026-06-30T21:19:24.220128,14.72232506,.00023858,86.6097,347.8103,88.1442,272.0049,0,U,43923,999,40126,.12496631E-3,.812E-5,0
IRIDIUM 168,2019-002C,2026-06-30T20:58:34.546080,14.34218199,.00022198,86.3981,347.9525,90.1812,269.9638,0,U,43924,999,39093,.57356644E-4,.18E-5,0
IRIDIUM 173,2019-002D,2026-06-30T10:37:30.941472,14.34217486,.000204,86.3973,348.0215,89.0878,271.0551,0,U,43925,999,39085,-.7179782E-5,0,0
IRIDIUM 169,2019-002E,2026-06-30T01:12:43.454880,14.38609462,.00016358,86.4218,19.8142,86.3630,273.7755,0,U,43926,999,39207,.93556261E-4,.306E-5,0
IRIDIUM 172,2019-002F,2026-06-30T12:08:50.946144,14.34217253,.00022247,86.3976,348.0027,89.3826,270.7625,0,U,43927,999,39087,.8299921E-5,.43E-6,0
IRIDIUM 175,2019-002G,2026-06-30T17:20:58.713792,14.43620104,.00041583,86.4519,284.8630,145.0426,215.1049,0,U,43928,999,40093,.89121571E-4,.322E-5,0
IRIDIUM 171,2019-002H,2026-06-30T21:44:14.949312,14.34217446,.0002027,86.3982,348.1434,94.2508,265.8919,0,U,43929,999,39092,-.5228958E-5,.5E-7,0
IRIDIUM 170,2019-002J,2026-06-30T23:06:10.270368,14.72233115,.00024422,86.6096,347.7816,84.7515,275.3981,0,U,43930,999,40128,.1241098E-3,.807E-5,0
IRIDIUM 167,2019-002K,2026-06-30T11:32:18.904704,14.34217750,.00020302,86.3976,348.0358,97.9743,262.1684,0,U,43931,999,39086,.366491E-5,.3E-6,0
IRIDIUM 181,2023-068S,2026-06-30T18:20:39.194592,14.43313216,.00024484,86.4486,51.1141,86.6012,273.5469,0,U,56726,999,16439,.82733518E-4,.299E-5,0
IRIDIUM 177,2023-068T,2026-06-30T21:52:00.270336,14.80043374,.00023243,86.1975,322.2736,89.3383,270.8104,0,U,56727,999,16839,.14760028E-3,.1143E-4,0
IRIDIUM 174,2023-068U,2026-06-30T21:10:29.704800,14.72240877,.00022895,86.6106,347.9640,80.1675,279.9800,0,U,56728,999,16803,.13025335E-3,.846E-5,0
IRIDIUM 178,2023-068V,2026-06-30T23:13:28.117920,14.80044631,.00025002,86.6531,19.5999,85.8083,274.3425,0,U,56729,999,16840,.13745327E-3,.1066E-4,0
IRIDIUM 179,2023-068W,2026-06-30T23:05:51.535392,14.80061786,.00024353,86.6765,28.6229,87.7263,272.4237,0,U,56730,999,16840,.12968445E-3,.1007E-4,0
